SHIYAN-1 (SY-1)         
1 28220U 04012A   26068.73650539  .00016393  00000+0  54854-3 0  9991
2 28220  97.8764 140.5238 0005873  23.6952 336.4557 15.31043463195862
STARLINK-35964          
1 66796U 25278F   26068.46888161  .00029421  00000+0  10740-2 0  9993
2 66796  43.0059 100.7099 0002315 252.2237 107.8362 15.27590262 15346
